{"type": "FeatureCollection", "features": [ {"type": "Feature", "properties": {"norad_id": 40534, "name": "GPS BIIF-9  (PRN 26)", "group": "gps-ops", "lat": 51.97957723578142, "lon": -74.81283044526782, "alt_km": 19961.20699750241, "timestamp": "2025-12-09T16:56:36.833692+00:00", "meta": {"OBJECT_NAME": "GPS BIIF-9  (PRN 26)", "OBJECT_ID": "2015-013A", "EPOCH": "2025-12-09T02:22:50.145600", "MEAN_MOTION": 2.00562736, "ECCENTRICITY": 0.0106899, "INCLINATION": 53.1983, "RA_OF_ASC_NODE": 212.041, "ARG_OF_PERICENTER": 38.3936, "MEAN_ANOMALY": 322.4441, "EPHEMERIS_TYPE": 0, "CLASSIFICATION_TYPE": "U", "NORAD_CAT_ID": 40534, "ELEMENT_SET_NO": 999, "REV_AT_EPOCH": 7801, "BSTAR": 0, "MEAN_MOTION_DOT": 1.8e-07, "MEAN_MOTION_DDOT": 0}, "tle": {"line1": "1 40534U 15013A   25343.09919150  .00000018  00000+0  00000+0 0  9994", "line2": "2 40534  53.1983 212.0410 0106899  38.3936 322.4441  2.00562736 78019"}}, "geometry": {"type": "Point", "coordinates": [-74.81283044526782, 51.97957723578142]}}, {"type": "Feature", "properties": {"norad_id": 40730, "name": "GPS BIIF-10 (PRN 08)", "group": "gps-ops", "lat": -30.625451433589785, "lon": -110.4376072604876, "alt_km": 20061.664459640884, "timestamp": "2025-12-09T16:56:36.833704+00:00", "meta": {"OBJECT_NAME": "GPS BIIF-10 (PRN 08)", "OBJECT_ID": "2015-033A", "EPOCH": "2025-12-09T06:15:09.846432", "MEAN_MOTION": 2.00565723, "ECCENTRICITY": 0.0110752, "INCLINATION": 54.1337, "RA_OF_ASC_NODE": 274.916, "ARG_OF_PERICENTER": 26.7258, "MEAN_ANOMALY": 333.8586, "EPHEMERIS_TYPE": 0, "CLASSIFICATION_TYPE": "U", "NORAD_CAT_ID": 40730, "ELEMENT_SET_NO": 999, "REV_AT_EPOCH": 7618, "BSTAR": 0, "MEAN_MOTION_DOT": -4.9e-07, "MEAN_MOTION_DDOT": 0}, "tle": {"line1": "1 40730U 15033A   25343.26053063 -.00000049  00000+0  00000+0 0  9990", "line2": "2 40730  54.1337 274.9160 0110752  26.7258 333.8586  2.00565723 76182"}}, "geometry": {"type": "Point", "coordinates": [-110.4376072604876, -30.625451433589785]}}, {"type": "Feature", "properties": {"norad_id": 41019, "name": "GPS BIIF-11 (PRN 10)", "group": "gps-ops", "lat": -55.822477727516215, "lon": -36.11116276966368, "alt_km": 19992.37946577898, "timestamp": "2025-12-09T16:56:36.833716+00:00", "meta": {"OBJECT_NAME": "GPS BIIF-11 (PRN 10)", "OBJECT_ID": "2015-062A", "EPOCH": "2025-12-09T07:40:39.423072", "MEAN_MOTION": 2.00567031, "ECCENTRICITY": 0.0110732, "INCLINATION": 56.8297, "RA_OF_ASC_NODE": 38.1346, "ARG_OF_PERICENTER": 229.8556, "MEAN_ANOMALY": 129.2222, "EPHEMERIS_TYPE": 0, "CLASSIFICATION_TYPE": "U", "NORAD_CAT_ID": 41019, "ELEMENT_SET_NO": 999, "REV_AT_EPOCH": 7402, "BSTAR": 0, "MEAN_MOTION_DOT": -8.3e-07, "MEAN_MOTION_DDOT": 0}, "tle": {"line1": "1 41019U 15062A   25343.31990073 -.00000083  00000+0  00000+0 0  9998", "line2": "2 41019  56.8297  38.1346 0110732 229.8556 129.2222  2.00567031 74027"}}, "geometry": {"type": "Point", "coordinates": [-36.11116276966368, -55.822477727516215]}}, {"type": "Feature", "properties": {"norad_id": 41328, "name": "GPS BIIF-12 (PRN 32)", "group": "gps-ops", "lat": -30.37816480125758, "lon": -59.191675763904136, "alt_km": 19965.696151879005, "timestamp": "2025-12-09T16:56:36.833727+00:00", "meta": {"OBJECT_NAME": "GPS BIIF-12 (PRN 32)", "OBJECT_ID": "2016-007A", "EPOCH": "2025-12-09T09:39:21.792384", "MEAN_MOTION": 2.00560837, "ECCENTRICITY": 0.0091999, "INCLINATION": 55.4044, "RA_OF_ASC_NODE": 96.9895, "ARG_OF_PERICENTER": 243.4939, "MEAN_ANOMALY": 115.5474, "EPHEMERIS_TYPE": 0, "CLASSIFICATION_TYPE": "U", "NORAD_CAT_ID": 41328, "ELEMENT_SET_NO": 999, "REV_AT_EPOCH": 7203, "BSTAR": 0, "MEAN_MOTION_DOT": 4e-08, "MEAN_MOTION_DDOT": 0}, "tle": {"line1": "1 41328U 16007A   25343.40233556  .00000004  00000+0  00000+0 0  9999", "line2": "2 41328  55.4044  96.9895 0091999 243.4939 115.5474  2.00560837 72039"}}, "geometry": {"type": "Point", "coordinates": [-59.191675763904136, -30.37816480125758]}}, {"type": "Feature", "properties": {"norad_id": 43873, "name": "GPS BIII-1  (PRN 04)", "group": "gps-ops", "lat": 49.58698725398318, "lon": -133.93473044782203, "alt_km": 20163.354188146604, "timestamp": "2025-12-09T16:56:36.833739+00:00", "meta": {"OBJECT_NAME": "GPS BIII-1  (PRN 04)", "OBJECT_ID": "2018-109A", "EPOCH": "2025-12-08T13:41:32.071776", "MEAN_MOTION": 2.00553358, "ECCENTRICITY": 0.003721, "INCLINATION": 55.5654, "RA_OF_ASC_NODE": 99.7112, "ARG_OF_PERICENTER": 194.8122, "MEAN_ANOMALY": 178.3596, "EPHEMERIS_TYPE": 0, "CLASSIFICATION_TYPE": "U", "NORAD_CAT_ID": 43873, "ELEMENT_SET_NO": 999, "REV_AT_EPOCH": 5125, "BSTAR": 0, "MEAN_MOTION_DOT": 6e-08, "MEAN_MOTION_DDOT": 0}, "tle": {"line1": "1 43873U 18109A   25342.57051009  .00000006  00000+0  00000+0 0  9991", "line2": "2 43873  55.5654  99.7112 0037210 194.8122 178.3596  2.00553358 51259"}}, "geometry": {"type": "Point", "coordinates": [-133.93473044782203, 49.58698725398318]}}, {"type": "Feature", "properties": {"norad_id": 44506, "name": "GPS BIII-2  (PRN 18)", "group": "gps-ops", "lat": 8.190032916703345, "lon": -15.7013688505053, "alt_km": 20332.65323108958, "timestamp": "2025-12-09T16:56:36.833751+00:00", "meta": {"OBJECT_NAME": "GPS BIII-2  (PRN 18)", "OBJECT_ID": "2019-056A", "EPOCH": "2025-12-09T10:21:29.039040", "MEAN_MOTION": 2.00566038, "ECCENTRICITY": 0.0057769, "INCLINATION": 55.7225, "RA_OF_ASC_NODE": 338.6833, "ARG_OF_PERICENTER": 198.4901, "MEAN_ANOMALY": 333.2213, "EPHEMERIS_TYPE": 0, "CLASSIFICATION_TYPE": "U", "NORAD_CAT_ID": 44506, "ELEMENT_SET_NO": 999, "REV_AT_EPOCH": 4626, "BSTAR": 0, "MEAN_MOTION_DOT": -8.6e-07, "MEAN_MOTION_DDOT": 0}, "tle": {"line1": "1 44506U 19056A   25343.43158610 -.00000086  00000+0  00000+0 0  9998", "line2": "2 44506  55.7225 338.6833 0057769 198.4901 333.2213  2.00566038 46262"}}, "geometry": {"type": "Point", "coordinates": [-15.7013688505053, 8.190032916703345]}}, {"type": "Feature", "properties": {"norad_id": 45854, "name": "GPS BIII-3  (PRN 23)", "group": "gps-ops", "lat": -36.470513844733105, "lon": 7.08795838832905, "alt_km": 20244.035245350176, "timestamp": "2025-12-09T16:56:36.833762+00:00", "meta": {"OBJECT_NAME": "GPS BIII-3  (PRN 23)", "OBJECT_ID": "2020-041A", "EPOCH": "2025-12-09T06:59:18.994848", "MEAN_MOTION": 2.0056182, "ECCENTRICITY": 0.0060408, "INCLINATION": 56.5448, "RA_OF_ASC_NODE": 36.3195, "ARG_OF_PERICENTER": 203.3087, "MEAN_ANOMALY": 171.1637, "EPHEMERIS_TYPE": 0, "CLASSIFICATION_TYPE": "U", "NORAD_CAT_ID": 45854, "ELEMENT_SET_NO": 999, "REV_AT_EPOCH": 4023, "BSTAR": 0, "MEAN_MOTION_DOT": -8.4e-07, "MEAN_MOTION_DDOT": 0}, "tle": {"line1": "1 45854U 20041A   25343.29119207 -.00000084  00000+0  00000+0 0  9992", "line2": "2 45854  56.5448  36.3195 0060408 203.3087 171.1637  2.00561820 40237"}}, "geometry": {"type": "Point", "coordinates": [7.08795838832905, -36.470513844733105]}}, {"type": "Feature", "properties": {"norad_id": 46826, "name": "GPS BIII-4  (PRN 14)", "group": "gps-ops", "lat": -51.22414148362184, "lon": 153.79156122159398, "alt_km": 20162.858892645076, "timestamp": "2025-12-09T16:56:36.833774+00:00", "meta": {"OBJECT_NAME": "GPS BIII-4  (PRN 14)", "OBJECT_ID": "2020-078A", "EPOCH": "2025-12-08T14:24:03.317760", "MEAN_MOTION": 2.00566768, "ECCENTRICITY": 0.0064574, "INCLINATION": 54.0161, "RA_OF_ASC_NODE": 218.509, "ARG_OF_PERICENTER": 203.354, "MEAN_ANOMALY": 2.942, "EPHEMERIS_TYPE": 0, "CLASSIFICATION_TYPE": "U", "NORAD_CAT_ID": 46826, "ELEMENT_SET_NO": 999, "REV_AT_EPOCH": 3768, "BSTAR": 0, "MEAN_MOTION_DOT": 1.6e-07, "MEAN_MOTION_DDOT": 0}, "tle": {"line1": "1 46826U 20078A   25342.60003840  .00000016  00000+0  00000+0 0  9995", "line2": "2 46826  54.0161 218.5090 0064574 203.3540   2.9420  2.00566768 37684"}}, "geometry": {"type": "Point", "coordinates": [153.79156122159398, -51.22414148362184]}}, {"type": "Feature", "properties": {"norad_id": 48859, "name": "GPS BIII-5  (PRN 11)", "group": "gps-ops", "lat": 50.46579131117003, "lon": 102.85006748779527, "alt_km": 20213.09532823576, "timestamp": "2025-12-09T16:56:36.833786+00:00", "meta": {"OBJECT_NAME": "GPS BIII-5  (PRN 11)", "OBJECT_ID": "2021-054A", "EPOCH": "2025-12-08T04:14:32.423424", "MEAN_MOTION": 2.00553628, "ECCENTRICITY": 0.0024681, "INCLINATION": 55.2581, "RA_OF_ASC_NODE": 340.1367, "ARG_OF_PERICENTER": 233.3965, "MEAN_ANOMALY": 212.8622, "EPHEMERIS_TYPE": 0, "CLASSIFICATION_TYPE": "U", "NORAD_CAT_ID": 48859, "ELEMENT_SET_NO": 999, "REV_AT_EPOCH": 3292, "BSTAR": 0, "MEAN_MOTION_DOT": -8.6e-07, "MEAN_MOTION_DDOT": 0}, "tle": {"line1": "1 48859U 21054A   25342.17676416 -.00000086  00000+0  00000+0 0  9993", "line2": "2 48859  55.2581 340.1367 0024681 233.3965 212.8622  2.00553628 32928"}}, "geometry": {"type": "Point", "coordinates": [102.85006748779527, 50.46579131117003]}}, {"type": "Feature", "properties": {"norad_id": 55268, "name": "GPS BIII-6  (PRN 28)", "group": "gps-ops", "lat": 22.008862330865924, "lon": -40.43372729959956, "alt_km": 20189.023118666428, "timestamp": "2025-12-09T16:56:36.833798+00:00", "meta": {"OBJECT_NAME": "GPS BIII-6  (PRN 28)", "OBJECT_ID": "2023-009A", "EPOCH": "2025-12-08T05:52:26.989248", "MEAN_MOTION": 2.00555991, "ECCENTRICITY": 0.0003615, "INCLINATION": 55.1046, "RA_OF_ASC_NODE": 156.0217, "ARG_OF_PERICENTER": 356.7859, "MEAN_ANOMALY": 180.9144, "EPHEMERIS_TYPE": 0, "CLASSIFICATION_TYPE": "U", "NORAD_CAT_ID": 55268, "ELEMENT_SET_NO": 999, "REV_AT_EPOCH": 2141, "BSTAR": 0, "MEAN_MOTION_DOT": 5.9e-07, "MEAN_MOTION_DDOT": 0}, "tle": {"line1": "1 55268U 23009A   25342.24475682  .00000059  00000+0  00000+0 0  9996", "line2": "2 55268  55.1046 156.0217 0003615 356.7859 180.9144  2.00555991 21410"}}, "geometry": {"type": "Point", "coordinates": [-40.43372729959956, 22.008862330865924]}}]}